[
  {
    "city": "臺北市",
    "districts": [
      {
        "district": "中正區",
        "zipcode": "100"
      },
      {
        "district": "大同區",
        "zipcode": "103"
      },
      {
        "district": "中山區",
        "zipcode": "104"
      },
      {
        "district": "松山區",
        "zipcode": "105"
      },
      {
        "district": "大安區",
        "zipcode": "106"
      },
      {
        "district": "萬華區",
        "zipcode": "108"
      },
      {
        "district": "信義區",
        "zipcode": "110"
      },
      {
        "district": "士林區",
        "zipcode": "111"
      },
      {
        "district": "北投區",
        "zipcode": "112"
      },
      {
        "district": "內湖區",
        "zipcode": "114"
      },
      {
        "district": "南港區",
        "zipcode": "115"
      },
      {
        "district": "文山區",
        "zipcode": "116"
      }
    ]
  },
  {
    "city": "基隆市",
    "districts": [
      {
        "district": "仁愛區",
        "zipcode": "200"
      },
      {
        "district": "信義區",
        "zipcode": "201"
      },
      {
        "district": "中正區",
        "zipcode": "202"
      },
      {
        "district": "中山區",
        "zipcode": "203"
      },
      {
        "district": "安樂區",
        "zipcode": "204"
      },
      {
        "district": "暖暖區",
        "zipcode": "205"
      },
      {
        "district": "七堵區",
        "zipcode": "206"
      }
    ]
  },
  {
    "city": "新北市",
    "districts": [
      {
        "district": "萬里區",
        "zipcode": "207"
      },
      {
        "district": "金山區",
        "zipcode": "208"
      },
      {
        "district": "板橋區",
        "zipcode": "220"
      },
      {
        "district": "汐止區",
        "zipcode": "221"
      },
      {
        "district": "深坑區",
        "zipcode": "222"
      },
      {
        "district": "石碇區",
        "zipcode": "223"
      },
      {
        "district": "瑞芳區",
        "zipcode": "224"
      },
      {
        "district": "平溪區",
        "zipcode": "226"
      },
      {
        "district": "雙溪區",
        "zipcode": "227"
      },
      {
        "district": "貢寮區",
        "zipcode": "228"
      },
      {
        "district": "新店區",
        "zipcode": "231"
      },
      {
        "district": "坪林區",
        "zipcode": "232"
      },
      {
        "district": "烏來區",
        "zipcode": "233"
      },
      {
        "district": "永和區",
        "zipcode": "234"
      },
      {
        "district": "中和區",
        "zipcode": "235"
      },
      {
        "district": "土城區",
        "zipcode": "236"
      },
      {
        "district": "三峽區",
        "zipcode": "237"
      },
      {
        "district": "樹林區",
        "zipcode": "238"
      },
      {
        "district": "鶯歌區",
        "zipcode": "239"
      },
      {
        "district": "三重區",
        "zipcode": "241"
      },
      {
        "district": "新莊區",
        "zipcode": "242"
      },
      {
        "district": "泰山區",
        "zipcode": "243"
      },
      {
        "district": "林口區",
        "zipcode": "244"
      },
      {
        "district": "蘆洲區",
        "zipcode": "247"
      },
      {
        "district": "五股區",
        "zipcode": "248"
      },
      {
        "district": "八里區",
        "zipcode": "249"
      },
      {
        "district": "淡水區",
        "zipcode": "251"
      },
      {
        "district": "三芝區",
        "zipcode": "252"
      },
      {
        "district": "石門區",
        "zipcode": "253"
      }
    ]
  },
  {
    "city": "連江縣",
    "districts": [
      {
        "district": "南竿鄉",
        "zipcode": "209"
      },
      {
        "district": "北竿鄉",
        "zipcode": "210"
      },
      {
        "district": "莒光鄉",
        "zipcode": "211"
      },
      {
        "district": "東引鄉",
        "zipcode": "212"
      }
    ]
  },
  {
    "city": "宜蘭縣",
    "districts": [
      {
        "district": "宜蘭市",
        "zipcode": "260"
      },
      {
        "district": "壯圍鄉",
        "zipcode": "263"
      },
      {
        "district": "頭城鎮",
        "zipcode": "261"
      },
      {
        "district": "礁溪鄉",
        "zipcode": "262"
      },
      {
        "district": "員山鄉",
        "zipcode": "264"
      },
      {
        "district": "羅東鎮",
        "zipcode": "265"
      },
      {
        "district": "三星鄉",
        "zipcode": "266"
      },
      {
        "district": "大同鄉",
        "zipcode": "267"
      },
      {
        "district": "五結鄉",
        "zipcode": "268"
      },
      {
        "district": "冬山鄉",
        "zipcode": "269"
      },
      {
        "district": "蘇澳鎮",
        "zipcode": "270"
      },
      {
        "district": "南澳鄉",
        "zipcode": "272"
      },
      {
        "district": "釣魚臺",
        "zipcode": "290"
      }
    ]
  },
  {
    "city": "釣魚臺",
    "districts": [
      {
        "district": "釣魚臺",
        "zipcode": "290"
      }
    ]
  },
  {
    "city": "新竹市",
    "districts": [
      {
        "district": "東區",
        "zipcode": "300"
      },
      {
        "district": "北區",
        "zipcode": "300"
      },
      {
        "district": "香山區",
        "zipcode": "300"
      }
    ]
  },
  {
    "city": "新竹縣",
    "districts": [
      {
        "district": "寶山鄉",
        "zipcode": "308"
      },
      {
        "district": "竹北市",
        "zipcode": "302"
      },
      {
        "district": "湖口鄉",
        "zipcode": "303"
      },
      {
        "district": "新豐鄉",
        "zipcode": "304"
      },
      {
        "district": "新埔鎮",
        "zipcode": "305"
      },
      {
        "district": "關西鎮",
        "zipcode": "306"
      },
      {
        "district": "芎林鄉",
        "zipcode": "307"
      },
      {
        "district": "竹東鎮",
        "zipcode": "310"
      },
      {
        "district": "五峰鄉",
        "zipcode": "311"
      },
      {
        "district": "橫山鄉",
        "zipcode": "312"
      },
      {
        "district": "尖石鄉",
        "zipcode": "313"
      },
      {
        "district": "北埔鄉",
        "zipcode": "314"
      },
      {
        "district": "峨眉鄉",
        "zipcode": "315"
      }
    ]
  },
  {
    "city": "桃園市",
    "districts": [
      {
        "district": "中壢區",
        "zipcode": "320"
      },
      {
        "district": "平鎮區",
        "zipcode": "324"
      },
      {
        "district": "龍潭區",
        "zipcode": "325"
      },
      {
        "district": "楊梅區",
        "zipcode": "326"
      },
      {
        "district": "新屋區",
        "zipcode": "327"
      },
      {
        "district": "觀音區",
        "zipcode": "328"
      },
      {
        "district": "桃園區",
        "zipcode": "330"
      },
      {
        "district": "龜山區",
        "zipcode": "333"
      },
      {
        "district": "八德區",
        "zipcode": "334"
      },
      {
        "district": "大溪區",
        "zipcode": "335"
      },
      {
        "district": "復興區",
        "zipcode": "336"
      },
      {
        "district": "大園區",
        "zipcode": "337"
      },
      {
        "district": "蘆竹區",
        "zipcode": "338"
      }
    ]
  },
  {
    "city": "苗栗縣",
    "districts": [
      {
        "district": "竹南鎮",
        "zipcode": "350"
      },
      {
        "district": "頭份市",
        "zipcode": "351"
      },
      {
        "district": "三灣鄉",
        "zipcode": "352"
      },
      {
        "district": "南庄鄉",
        "zipcode": "353"
      },
      {
        "district": "獅潭鄉",
        "zipcode": "354"
      },
      {
        "district": "後龍鎮",
        "zipcode": "356"
      },
      {
        "district": "通霄鎮",
        "zipcode": "357"
      },
      {
        "district": "苑裡鎮",
        "zipcode": "358"
      },
      {
        "district": "苗栗市",
        "zipcode": "360"
      },
      {
        "district": "造橋鄉",
        "zipcode": "361"
      },
      {
        "district": "頭屋鄉",
        "zipcode": "362"
      },
      {
        "district": "公館鄉",
        "zipcode": "363"
      },
      {
        "district": "大湖鄉",
        "zipcode": "364"
      },
      {
        "district": "泰安鄉",
        "zipcode": "365"
      },
      {
        "district": "銅鑼鄉",
        "zipcode": "366"
      },
      {
        "district": "三義鄉",
        "zipcode": "367"
      },
      {
        "district": "西湖鄉",
        "zipcode": "368"
      },
      {
        "district": "卓蘭鎮",
        "zipcode": "369"
      }
    ]
  },
  {
    "city": "臺中市",
    "districts": [
      {
        "district": "中區",
        "zipcode": "400"
      },
      {
        "district": "東區",
        "zipcode": "401"
      },
      {
        "district": "南區",
        "zipcode": "402"
      },
      {
        "district": "西區",
        "zipcode": "403"
      },
      {
        "district": "北區",
        "zipcode": "404"
      },
      {
        "district": "北屯區",
        "zipcode": "406"
      },
      {
        "district": "西屯區",
        "zipcode": "407"
      },
      {
        "district": "南屯區",
        "zipcode": "408"
      },
      {
        "district": "太平區",
        "zipcode": "411"
      },
      {
        "district": "大里區",
        "zipcode": "412"
      },
      {
        "district": "霧峰區",
        "zipcode": "413"
      },
      {
        "district": "烏日區",
        "zipcode": "414"
      },
      {
        "district": "豐原區",
        "zipcode": "420"
      },
      {
        "district": "后里區",
        "zipcode": "421"
      },
      {
        "district": "石岡區",
        "zipcode": "422"
      },
      {
        "district": "東勢區",
        "zipcode": "423"
      },
      {
        "district": "和平區",
        "zipcode": "424"
      },
      {
        "district": "新社區",
        "zipcode": "426"
      },
      {
        "district": "潭子區",
        "zipcode": "427"
      },
      {
        "district": "大雅區",
        "zipcode": "428"
      },
      {
        "district": "神岡區",
        "zipcode": "429"
      },
      {
        "district": "大肚區",
        "zipcode": "432"
      },
      {
        "district": "沙鹿區",
        "zipcode": "433"
      },
      {
        "district": "龍井區",
        "zipcode": "434"
      },
      {
        "district": "梧棲區",
        "zipcode": "435"
      },
      {
        "district": "清水區",
        "zipcode": "436"
      },
      {
        "district": "大甲區",
        "zipcode": "437"
      },
      {
        "district": "外埔區",
        "zipcode": "438"
      },
      {
        "district": "大安區",
        "zipcode": "439"
      }
    ]
  },
  {
    "city": "彰化縣",
    "districts": [
      {
        "district": "彰化市",
        "zipcode": "500"
      },
      {
        "district": "芬園鄉",
        "zipcode": "502"
      },
      {
        "district": "花壇鄉",
        "zipcode": "503"
      },
      {
        "district": "秀水鄉",
        "zipcode": "504"
      },
      {
        "district": "鹿港鎮",
        "zipcode": "505"
      },
      {
        "district": "福興鄉",
        "zipcode": "506"
      },
      {
        "district": "線西鄉",
        "zipcode": "507"
      },
      {
        "district": "和美鎮",
        "zipcode": "508"
      },
      {
        "district": "伸港鄉",
        "zipcode": "509"
      },
      {
        "district": "員林市",
        "zipcode": "510"
      },
      {
        "district": "社頭鄉",
        "zipcode": "511"
      },
      {
        "district": "永靖鄉",
        "zipcode": "512"
      },
      {
        "district": "埔心鄉",
        "zipcode": "513"
      },
      {
        "district": "溪湖鎮",
        "zipcode": "514"
      },
      {
        "district": "大村鄉",
        "zipcode": "515"
      },
      {
        "district": "埔鹽鄉",
        "zipcode": "516"
      },
      {
        "district": "田中鎮",
        "zipcode": "520"
      },
      {
        "district": "北斗鎮",
        "zipcode": "521"
      },
      {
        "district": "田尾鄉",
        "zipcode": "522"
      },
      {
        "district": "埤頭鄉",
        "zipcode": "523"
      },
      {
        "district": "溪州鄉",
        "zipcode": "524"
      },
      {
        "district": "竹塘鄉",
        "zipcode": "525"
      },
      {
        "district": "二林鎮",
        "zipcode": "526"
      },
      {
        "district": "大城鄉",
        "zipcode": "527"
      },
      {
        "district": "芳苑鄉",
        "zipcode": "528"
      },
      {
        "district": "二水鄉",
        "zipcode": "530"
      }
    ]
  },
  {
    "city": "南投縣",
    "districts": [
      {
        "district": "南投市",
        "zipcode": "540"
      },
      {
        "district": "中寮鄉",
        "zipcode": "541"
      },
      {
        "district": "草屯鎮",
        "zipcode": "542"
      },
      {
        "district": "國姓鄉",
        "zipcode": "544"
      },
      {
        "district": "埔里鎮",
        "zipcode": "545"
      },
      {
        "district": "仁愛鄉",
        "zipcode": "546"
      },
      {
        "district": "名間鄉",
        "zipcode": "551"
      },
      {
        "district": "集集鎮",
        "zipcode": "552"
      },
      {
        "district": "水里鄉",
        "zipcode": "553"
      },
      {
        "district": "魚池鄉",
        "zipcode": "555"
      },
      {
        "district": "信義鄉",
        "zipcode": "556"
      },
      {
        "district": "竹山鎮",
        "zipcode": "557"
      },
      {
        "district": "鹿谷鄉",
        "zipcode": "558"
      }
    ]
  },
  {
    "city": "嘉義市",
    "districts": [
      {
        "district": "西區",
        "zipcode": "600"
      },
      {
        "district": "東區",
        "zipcode": "600"
      }
    ]
  },
  {
    "city": "嘉義縣",
    "districts": [
      {
        "district": "番路鄉",
        "zipcode": "602"
      },
      {
        "district": "梅山鄉",
        "zipcode": "603"
      },
      {
        "district": "竹崎鄉",
        "zipcode": "604"
      },
      {
        "district": "阿里山鄉",
        "zipcode": "605"
      },
      {
        "district": "中埔鄉",
        "zipcode": "606"
      },
      {
        "district": "大埔鄉",
        "zipcode": "607"
      },
      {
        "district": "水上鄉",
        "zipcode": "608"
      },
      {
        "district": "鹿草鄉",
        "zipcode": "611"
      },
      {
        "district": "太保市",
        "zipcode": "612"
      },
      {
        "district": "朴子市",
        "zipcode": "613"
      },
      {
        "district": "東石鄉",
        "zipcode": "614"
      },
      {
        "district": "六腳鄉",
        "zipcode": "615"
      },
      {
        "district": "新港鄉",
        "zipcode": "616"
      },
      {
        "district": "民雄鄉",
        "zipcode": "621"
      },
      {
        "district": "大林鎮",
        "zipcode": "622"
      },
      {
        "district": "溪口鄉",
        "zipcode": "623"
      },
      {
        "district": "義竹鄉",
        "zipcode": "624"
      },
      {
        "district": "布袋鎮",
        "zipcode": "625"
      }
    ]
  },
  {
    "city": "雲林縣",
    "districts": [
      {
        "district": "斗南鎮",
        "zipcode": "630"
      },
      {
        "district": "大埤鄉",
        "zipcode": "631"
      },
      {
        "district": "虎尾鎮",
        "zipcode": "632"
      },
      {
        "district": "土庫鎮",
        "zipcode": "633"
      },
      {
        "district": "褒忠鄉",
        "zipcode": "634"
      },
      {
        "district": "東勢鄉",
        "zipcode": "635"
      },
      {
        "district": "臺西鄉",
        "zipcode": "636"
      },
      {
        "district": "崙背鄉",
        "zipcode": "637"
      },
      {
        "district": "麥寮鄉",
        "zipcode": "638"
      },
      {
        "district": "斗六市",
        "zipcode": "640"
      },
      {
        "district": "林內鄉",
        "zipcode": "643"
      },
      {
        "district": "古坑鄉",
        "zipcode": "646"
      },
      {
        "district": "莿桐鄉",
        "zipcode": "647"
      },
      {
        "district": "西螺鎮",
        "zipcode": "648"
      },
      {
        "district": "二崙鄉",
        "zipcode": "649"
      },
      {
        "district": "北港鎮",
        "zipcode": "651"
      },
      {
        "district": "水林鄉",
        "zipcode": "652"
      },
      {
        "district": "口湖鄉",
        "zipcode": "653"
      },
      {
        "district": "四湖鄉",
        "zipcode": "654"
      },
      {
        "district": "元長鄉",
        "zipcode": "655"
      }
    ]
  },
  {
    "city": "臺南市",
    "districts": [
      {
        "district": "中西區",
        "zipcode": "700"
      },
      {
        "district": "東區",
        "zipcode": "701"
      },
      {
        "district": "南區",
        "zipcode": "702"
      },
      {
        "district": "北區",
        "zipcode": "704"
      },
      {
        "district": "安平區",
        "zipcode": "708"
      },
      {
        "district": "安南區",
        "zipcode": "709"
      },
      {
        "district": "永康區",
        "zipcode": "710"
      },
      {
        "district": "歸仁區",
        "zipcode": "711"
      },
      {
        "district": "新化區",
        "zipcode": "712"
      },
      {
        "district": "左鎮區",
        "zipcode": "713"
      },
      {
        "district": "玉井區",
        "zipcode": "714"
      },
      {
        "district": "楠西區",
        "zipcode": "715"
      },
      {
        "district": "南化區",
        "zipcode": "716"
      },
      {
        "district": "仁德區",
        "zipcode": "717"
      },
      {
        "district": "關廟區",
        "zipcode": "718"
      },
      {
        "district": "龍崎區",
        "zipcode": "719"
      },
      {
        "district": "官田區",
        "zipcode": "720"
      },
      {
        "district": "麻豆區",
        "zipcode": "721"
      },
      {
        "district": "佳里區",
        "zipcode": "722"
      },
      {
        "district": "西港區",
        "zipcode": "723"
      },
      {
        "district": "七股區",
        "zipcode": "724"
      },
      {
        "district": "將軍區",
        "zipcode": "725"
      },
      {
        "district": "學甲區",
        "zipcode": "726"
      },
      {
        "district": "北門區",
        "zipcode": "727"
      },
      {
        "district": "新營區",
        "zipcode": "730"
      },
      {
        "district": "後壁區",
        "zipcode": "731"
      },
      {
        "district": "白河區",
        "zipcode": "732"
      },
      {
        "district": "東山區",
        "zipcode": "733"
      },
      {
        "district": "六甲區",
        "zipcode": "734"
      },
      {
        "district": "下營區",
        "zipcode": "735"
      },
      {
        "district": "柳營區",
        "zipcode": "736"
      },
      {
        "district": "鹽水區",
        "zipcode": "737"
      },
      {
        "district": "善化區",
        "zipcode": "741"
      },
      {
        "district": "新市區",
        "zipcode": "744"
      },
      {
        "district": "大內區",
        "zipcode": "742"
      },
      {
        "district": "山上區",
        "zipcode": "743"
      },
      {
        "district": "安定區",
        "zipcode": "745"
      }
    ]
  },
  {
    "city": "高雄市",
    "districts": [
      {
        "district": "新興區",
        "zipcode": "800"
      },
      {
        "district": "前金區",
        "zipcode": "801"
      },
      {
        "district": "苓雅區",
        "zipcode": "802"
      },
      {
        "district": "鹽埕區",
        "zipcode": "803"
      },
      {
        "district": "鼓山區",
        "zipcode": "804"
      },
      {
        "district": "旗津區",
        "zipcode": "805"
      },
      {
        "district": "前鎮區",
        "zipcode": "806"
      },
      {
        "district": "三民區",
        "zipcode": "807"
      },
      {
        "district": "楠梓區",
        "zipcode": "811"
      },
      {
        "district": "小港區",
        "zipcode": "812"
      },
      {
        "district": "左營區",
        "zipcode": "813"
      },
      {
        "district": "仁武區",
        "zipcode": "814"
      },
      {
        "district": "大社區",
        "zipcode": "815"
      },
      {
        "district": "東沙群島",
        "zipcode": "817"
      },
      {
        "district": "南沙群島",
        "zipcode": "819"
      },
      {
        "district": "岡山區",
        "zipcode": "820"
      },
      {
        "district": "路竹區",
        "zipcode": "821"
      },
      {
        "district": "阿蓮區",
        "zipcode": "822"
      },
      {
        "district": "田寮區",
        "zipcode": "823"
      },
      {
        "district": "燕巢區",
        "zipcode": "824"
      },
      {
        "district": "橋頭區",
        "zipcode": "825"
      },
      {
        "district": "梓官區",
        "zipcode": "826"
      },
      {
        "district": "彌陀區",
        "zipcode": "827"
      },
      {
        "district": "永安區",
        "zipcode": "828"
      },
      {
        "district": "湖內區",
        "zipcode": "829"
      },
      {
        "district": "鳳山區",
        "zipcode": "830"
      },
      {
        "district": "大寮區",
        "zipcode": "831"
      },
      {
        "district": "林園區",
        "zipcode": "832"
      },
      {
        "district": "鳥松區",
        "zipcode": "833"
      },
      {
        "district": "大樹區",
        "zipcode": "840"
      },
      {
        "district": "旗山區",
        "zipcode": "842"
      },
      {
        "district": "美濃區",
        "zipcode": "843"
      },
      {
        "district": "六龜區",
        "zipcode": "844"
      },
      {
        "district": "內門區",
        "zipcode": "845"
      },
      {
        "district": "杉林區",
        "zipcode": "846"
      },
      {
        "district": "甲仙區",
        "zipcode": "847"
      },
      {
        "district": "桃源區",
        "zipcode": "848"
      },
      {
        "district": "那瑪夏區",
        "zipcode": "849"
      },
      {
        "district": "茂林區",
        "zipcode": "851"
      },
      {
        "district": "茄萣區",
        "zipcode": "852"
      }
    ]
  },
  {
    "city": "南海島",
    "districts": [
      {
        "district": "東沙群島",
        "zipcode": "817"
      },
      {
        "district": "南沙群島",
        "zipcode": "819"
      }
    ]
  },
  {
    "city": "澎湖縣",
    "districts": [
      {
        "district": "馬公市",
        "zipcode": "880"
      },
      {
        "district": "西嶼鄉",
        "zipcode": "881"
      },
      {
        "district": "望安鄉",
        "zipcode": "882"
      },
      {
        "district": "七美鄉",
        "zipcode": "883"
      },
      {
        "district": "白沙鄉",
        "zipcode": "884"
      },
      {
        "district": "湖西鄉",
        "zipcode": "885"
      }
    ]
  },
  {
    "city": "金門縣",
    "districts": [
      {
        "district": "金沙鎮",
        "zipcode": "890"
      },
      {
        "district": "金湖鎮",
        "zipcode": "891"
      },
      {
        "district": "金寧鄉",
        "zipcode": "892"
      },
      {
        "district": "金城鎮",
        "zipcode": "893"
      },
      {
        "district": "烈嶼鄉",
        "zipcode": "894"
      },
      {
        "district": "烏坵鄉",
        "zipcode": "896"
      }
    ]
  },
  {
    "city": "屏東縣",
    "districts": [
      {
        "district": "屏東市",
        "zipcode": "900"
      },
      {
        "district": "三地門鄉",
        "zipcode": "901"
      },
      {
        "district": "霧臺鄉",
        "zipcode": "902"
      },
      {
        "district": "瑪家鄉",
        "zipcode": "903"
      },
      {
        "district": "九如鄉",
        "zipcode": "904"
      },
      {
        "district": "里港鄉",
        "zipcode": "905"
      },
      {
        "district": "高樹鄉",
        "zipcode": "906"
      },
      {
        "district": "鹽埔鄉",
        "zipcode": "907"
      },
      {
        "district": "長治鄉",
        "zipcode": "908"
      },
      {
        "district": "麟洛鄉",
        "zipcode": "909"
      },
      {
        "district": "竹田鄉",
        "zipcode": "911"
      },
      {
        "district": "內埔鄉",
        "zipcode": "912"
      },
      {
        "district": "萬丹鄉",
        "zipcode": "913"
      },
      {
        "district": "潮州鎮",
        "zipcode": "920"
      },
      {
        "district": "泰武鄉",
        "zipcode": "921"
      },
      {
        "district": "來義鄉",
        "zipcode": "922"
      },
      {
        "district": "萬巒鄉",
        "zipcode": "923"
      },
      {
        "district": "崁頂鄉",
        "zipcode": "924"
      },
      {
        "district": "新埤鄉",
        "zipcode": "925"
      },
      {
        "district": "南州鄉",
        "zipcode": "926"
      },
      {
        "district": "林邊鄉",
        "zipcode": "927"
      },
      {
        "district": "東港鎮",
        "zipcode": "928"
      },
      {
        "district": "琉球鄉",
        "zipcode": "929"
      },
      {
        "district": "佳冬鄉",
        "zipcode": "931"
      },
      {
        "district": "新園鄉",
        "zipcode": "932"
      },
      {
        "district": "枋寮鄉",
        "zipcode": "940"
      },
      {
        "district": "枋山鄉",
        "zipcode": "941"
      },
      {
        "district": "春日鄉",
        "zipcode": "942"
      },
      {
        "district": "獅子鄉",
        "zipcode": "943"
      },
      {
        "district": "車城鄉",
        "zipcode": "944"
      },
      {
        "district": "牡丹鄉",
        "zipcode": "945"
      },
      {
        "district": "恆春鎮",
        "zipcode": "946"
      },
      {
        "district": "滿州鄉",
        "zipcode": "947"
      }
    ]
  },
  {
    "city": "臺東縣",
    "districts": [
      {
        "district": "臺東市",
        "zipcode": "950"
      },
      {
        "district": "綠島鄉",
        "zipcode": "951"
      },
      {
        "district": "蘭嶼鄉",
        "zipcode": "952"
      },
      {
        "district": "延平鄉",
        "zipcode": "953"
      },
      {
        "district": "卑南鄉",
        "zipcode": "954"
      },
      {
        "district": "鹿野鄉",
        "zipcode": "955"
      },
      {
        "district": "關山鎮",
        "zipcode": "956"
      },
      {
        "district": "海端鄉",
        "zipcode": "957"
      },
      {
        "district": "池上鄉",
        "zipcode": "958"
      },
      {
        "district": "東河鄉",
        "zipcode": "959"
      },
      {
        "district": "成功鎮",
        "zipcode": "961"
      },
      {
        "district": "長濱鄉",
        "zipcode": "962"
      },
      {
        "district": "太麻里鄉",
        "zipcode": "963"
      },
      {
        "district": "金峰鄉",
        "zipcode": "964"
      },
      {
        "district": "大武鄉",
        "zipcode": "965"
      },
      {
        "district": "達仁鄉",
        "zipcode": "966"
      }
    ]
  },
  {
    "city": "花蓮縣",
    "districts": [
      {
        "district": "花蓮市",
        "zipcode": "970"
      },
      {
        "district": "新城鄉",
        "zipcode": "971"
      },
      {
        "district": "秀林鄉",
        "zipcode": "972"
      },
      {
        "district": "吉安鄉",
        "zipcode": "973"
      },
      {
        "district": "壽豐鄉",
        "zipcode": "974"
      },
      {
        "district": "鳳林鎮",
        "zipcode": "975"
      },
      {
        "district": "光復鄉",
        "zipcode": "976"
      },
      {
        "district": "豐濱鄉",
        "zipcode": "977"
      },
      {
        "district": "瑞穗鄉",
        "zipcode": "978"
      },
      {
        "district": "萬榮鄉",
        "zipcode": "979"
      },
      {
        "district": "玉里鎮",
        "zipcode": "981"
      },
      {
        "district": "卓溪鄉",
        "zipcode": "982"
      },
      {
        "district": "富里鄉",
        "zipcode": "983"
      }
    ]
  }
]
